ONEWEB-0201             
1 48241U 21031AH  22018.55549707  .00000329  00000+0  85213-3 0  9996
2 48241  87.8957 249.8241 0001469  87.6946 272.4352 13.14503668 36781
ONEWEB-0207             
1 48242U 21031AJ  22018.60622778  .00000061  00000+0  12910-3 0  9990
2 48242  87.8939 249.8142 0001935  85.0979 275.0371 13.14501175 36701
ONEWEB-0208             
1 48243U 21031AK  22018.65906878 -.00000171  00000+0 -49680-3 0  9990
2 48243  87.8934 249.7935 0001142 107.2837 252.8418 13.14501411 36726
ONEWEB-0200             
1 48244U 21031AL  22018.54701623  .00000225  00000+0  57113-3 0  9998
2 48244  87.8936 249.7981 0001160 111.5183 248.6070 13.14501186 36638
ONEWEB-0217             
1 48245U 21031AM  22018.71616498  .00000124  00000+0  29997-3 0  9990
2 48245  87.8941 249.7847 0001200 109.3188 250.8072 13.14501179 36618
ONEWEB-0211             
1 48767U 21045A   22018.91667824  .00043748  00000+0  11566+0 0  9993
2 48767  87.9032 219.4501 0001036  93.8655  50.9154 13.15526318 33826
ONEWEB-0223             
1 48768U 21045B   22018.91667824  .00042563  00000+0  11254+0 0  9992
2 48768  87.9046 219.4090 0000846  83.8266 320.9605 13.15527114 33826
ONEWEB-0230             
1 48769U 21045C   22018.58334491 -.00014203  00000+0 -37814-1 0  9991
2 48769  87.9073 219.4319 0001044  78.7984 318.1475 13.15561353  3297
ONEWEB-0237             
1 48770U 21045D   22018.91667824  .00042885  00000+0  11339+0 0  9996
2 48770  87.9058 219.2612 0001036  63.9324 160.9165 13.15525306 33796
ONEWEB-0235             
1 48771U 21045E   22018.91667824  .00041805  00000+0  11054+0 0  9992
2 48771  87.9087 219.2663 0000788  37.6201 317.1579 13.15529175 33782
ONEWEB-0242             
1 48772U 21045F   22018.91667824  .00042184  00000+0  11154+0 0  9995
2 48772  87.9039 219.4097 0001008  86.8962 297.8943 13.15527212 33834
ONEWEB-0241             
1 48773U 21045G   22018.91667824  .00043324  00000+0  11454+0 0  9996
2 48773  87.9029 219.4013 0000919 117.1185 327.6967 13.15528167 33745
ONEWEB-0243             
1 48774U 21045H   22018.91667824  .00041766  00000+0  11044+0 0  9990
2 48774  87.9084 219.3122 0001206  63.4461 231.2725 13.15527288 33764
ONEWEB-0222             
1 48775U 21045J   22018.91667824  .00041681  00000+0  11021+0 0  9992
2 48775  87.9082 219.3479 0001052  92.1046 252.6956 13.15530750 33801
ONEWEB-0244             
1 48776U 21045K   22018.91667824  .00043532  00000+0  11509+0 0  9991
2 48776  87.9018 219.3929 0001468  46.3461 133.4320 13.15527018 34371
ONEWEB-0247             
1 48777U 21045L   22018.55654256  .00000061  00000+0  12691-3 0  9994
2 48777  87.9046 219.4345 0000731  49.4118 310.7076 13.15546322 32646
ONEWEB-0245             
1 48778U 21045M   22018.91667824  .00041908  00000+0  11082+0 0  9994
2 48778  87.9085 219.2705 0001272 107.8871 176.9396 13.15523400 33790
ONEWEB-0229             
1 48779U 21045N   22018.91667824  .00041654  00000+0  11015+0 0  9999
2 48779  87.9084 219.2686 0000924  90.6215 224.1838 13.15524507 33811
ONEWEB-0228             
1 48780U 21045P   22018.91667824  .00042514  00000+0  11242+0 0  9999
2 48780  87.9058 219.3190 0001256  80.3861 164.3523 13.15521228 33731
ONEWEB-0232             
1 48781U 21045Q   22018.91667824  .00041996  00000+0  11106+0 0  9992
2 48781  87.9108 219.4369 0001122 107.4875 167.3987 13.15518165 34054
ONEWEB-0231             
1 48782U 21045R   22018.91667824  .00042023  00000+0  11111+0 0  9991
2 48782  87.9108 219.3992 0000972  67.7848 307.0678 13.15531400 33760
ONEWEB-0234             
1 48783U 21045S   22018.91667824  .00042322  00000+0  11191+0 0  9992
2 48783  87.9030 219.4041 0001443 101.1460 153.6431 13.15524066 33883
ONEWEB-0238             
1 48784U 21045T   22018.91667824  .00043300  00000+0  11448+0 0  9995
2 48784  87.9065 219.3685 0001411 102.1577  97.5611 13.15525708 33789
ONEWEB-0240             
1 48785U 21045U   22018.91667824  .00043467  00000+0  11492+0 0  9999
2 48785  87.9034 219.4050 0000763 121.2249 333.5483 13.15525953 33816
ONEWEB-0246             
1 48786U 21045V   22018.91667824  .00043696  00000+0  11552+0 0  9991
2 48786  87.9026 219.4217 0001021  73.7821  41.0559 13.15528421 33670
ONEWEB-0210             
1 48787U 21045W   22018.91667824  .00042650  00000+0  11277+0 0  9995
2 48787  87.9025 219.4121 0001410  46.3076 188.5460 13.15525018 33727
ONEWEB-0214             
1 48788U 21045X   22018.91667824  .00043462  00000+0  11491+0 0  9996
2 48788  87.9040 219.4204 0001710  48.4942 136.2767 13.15524769 33682
ONEWEB-0221             
1 48789U 21045Y   22018.91667824  .00043727  00000+0  11561+0 0  9999
2 48789  87.9024 219.4342 0001123  84.2979  70.4838 13.15522380 33791
ONEWEB-0213             
1 48790U 21045Z   22018.91667824  .00043049  00000+0  11383+0 0  9990
2 48790  87.9088 219.3111 0000978  72.5657 142.2746 13.15520373 33859
ONEWEB-0212             
1 48791U 21045AA  22018.91667824  .00041687  00000+0  11023+0 0  9998
2 48791  87.9088 219.3456 0001768  94.2475 210.5197 13.15528030 33845
ONEWEB-0227             
1 48792U 21045AB  22018.91667824  .00041646  00000+0  11012+0 0  9992
2 48792  87.9113 219.3057 0001131  98.8817 235.9717 13.15530241 33796
ONEWEB-0226             
1 48793U 21045AC  22018.91667824  .00041931  00000+0  11087+0 0  9992
2 48793  87.9089 219.2980 0001213  50.9624 313.7663 13.15530855 33751
ONEWEB-0224             
1 48794U 21045AD  22018.58334491 -.00014245  00000+0 -37927-1 0  9990
2 48794  87.9019 219.4818 0001658 110.4972 276.4606 13.15558667  3297
ONEWEB-0233             
1 48795U 21045AE  22018.91667824  .00043338  00000+0  11458+0 0  9999
2 48795  87.9096 219.2886 0001171 102.9058 336.9725 13.15526143 33681
ONEWEB-0190             
1 48796U 21045AF  22018.91667824  .00043208  00000+0  11424+0 0  9999
2 48796  87.9090 219.2718 0000560  13.6870 191.0932 13.15524927 33768
ONEWEB-0236             
1 48797U 21045AG  22018.91667824  .00043724  00000+0  11560+0 0  9994
2 48797  87.9030 219.4496 0001290  91.3063  33.4651 13.15524328 33656
ONEWEB-0248             
1 48798U 21045AH  22018.91667824  .00042977  00000+0  11363+0 0  9995
2 48798  87.9036 219.4201 0000470 142.2719 282.5326 13.15527008 33823
ONEWEB-0225             
1 48799U 21045AJ  22018.91667824  .00041601  00000+0  11001+0 0  9998
2 48799  87.9076 219.3715 0000576  83.1832 241.5535 13.15525615 33844
ONEWEB-0215             
1 48800U 21045AK  22018.91667824  .00043571  00000+0  11519+0 0  9993
2 48800  87.9029 219.4234 0000234 118.9919 345.8062 13.15529087 33699
ONEWEB-0216             
1 48801U 21045AL  22018.58334491 -.00012939  00000+0 -34446-1 0  9990
2 48801  87.9078 219.4495 0001604  75.4577 201.6430 13.15560148 33659
ONEWEB-0239             
1 48802U 21045AM  22018.91667824  .00042392  00000+0  11208+0 0  9990
2 48802  87.9080 219.3812 0000295  93.7706 301.0513 13.15531794 33761
ONEWEB-0249             
1 48967U 21060A   22018.58334491 -.00042968  00000+0 -11292+0 0  9997
2 48967  87.9147 189.2201 0001455  86.2991 197.0001 13.16617755  3299
ONEWEB-0250             
1 48968U 21060B   22018.58334491 -.00043279  00000+0 -11374+0 0  9995
2 48968  87.9148 189.2204 0001013 107.1955 154.2795 13.16618685  3295
ONEWEB-0251             
1 48969U 21060C   22018.91667824  .00007632  00000+0  22713-3 0  9996
2 48969  87.4236 166.9103 0008280 225.8750 351.7622 15.34509497 32155
ONEWEB-0252             
1 48970U 21060D   22018.58334491 -.00044668  00000+0 -11741+0 0  9999
2 48970  87.9114 189.2483 0001198  80.9269  49.7099 13.16617456  3290
ONEWEB-0253             
1 48971U 21060E   22018.91667824  .00032006  00000+0  83416-1 0  9997
2 48971  87.9127 189.1892 0000919  81.9586 231.1687 13.16578738 28983
ONEWEB-0254             
1 48972U 21060F   22018.58334491 -.00044752  00000+0 -11764+0 0  9990
2 48972  87.9123 189.2164 0000914  81.5293  59.9038 13.16613121  3298
ONEWEB-0255             
1 48973U 21060G   22018.58334491 -.00042754  00000+0 -11235+0 0  9994
2 48973  87.9146 189.2730 0000948  87.4528 228.6312 13.16621012  3294
ONEWEB-0256             
1 48974U 21060H   22018.58334491 -.00044360  00000+0 -11660+0 0  9992
2 48974  87.9126 189.2510 0001770  87.9609 108.0890 13.16615197  3297
ONEWEB-0257             
1 48975U 21060J   22018.58334491 -.00043321  00000+0 -11385+0 0  9993
2 48975  87.9135 189.2759 0001305  79.2007 324.0679 13.16619124  3304
ONEWEB-0258             
1 48976U 21060K   22018.58334491 -.00043167  00000+0 -11345+0 0  9998
2 48976  87.9144 189.2626 0001274  97.3153 295.0166 13.16616069  3309
ONEWEB-0259             
1 48977U 21060L   22018.58334491 -.00043485  00000+0 -11429+0 0  9995
2 48977  87.9144 189.2349 0000709  99.8791 314.3621 13.16615755  3301
ONEWEB-0260             
1 48978U 21060M   22018.58334491 -.00044092  00000+0 -11589+0 0  9998
2 48978  87.9128 189.2587 0001912  63.9145  23.0102 13.16615764  3296
ONEWEB-0261             
1 48979U 21060N   22018.58334491 -.00043420  00000+0 -11411+0 0  9997
2 48979  87.9139 189.2548 0001188  76.7585 173.7323 13.16620581  3292
ONEWEB-0262             
1 48980U 21060P   22018.58334491 -.00042769  00000+0 -11239+0 0  9992
2 48980  87.9158 189.1784 0000952  71.9362 265.8513 13.16620717  3299
ONEWEB-0263             
1 48981U 21060Q   22018.58334491 -.00044565  00000+0 -11714+0 0  9997
2 48981  87.9155 189.1667 0000528  81.3621 103.7969 13.16615607  3296
ONEWEB-0264             
1 48982U 21060R   22018.58334491 -.00042956  00000+0 -11289+0 0  9997
2 48982  87.9171 189.1086 0001221  92.5770 277.9825 13.16616589  3307
ONEWEB-0265             
1 48983U 21060S   22018.91667824  .00631264  00000+0  11503-1 0  9999
2 48983  87.3993 165.5413 0005535 201.6893 251.1958 15.47141707 32312
ONEWEB-0266             
1 48984U 21060T   22018.58334491 -.00043132  00000+0 -11335+0 0  9998
2 48984  87.9156 189.1934 0001469  99.3935 172.9376 13.16620311  3297
